ICEYE-X7                
1 46496U 20068L   26201.91275508  .00007955  00000+0  25865-3 0  9997
2 46496  97.7513 169.9923 0006701 190.2403 169.8702 15.32170862319950
ICEYE-X6                
1 46497U 20068M   26201.97512263  .00001408  00000+0  10491-3 0  9992
2 46497  98.0993 197.2684 0006702 352.9692   7.1437 15.04685107318313
ICEYE-X65               
1 66300U 25248H   26201.60564558  .00001712  00000+0  12562-3 0  9995
2 66300  45.4068 318.4471 0005988 226.3769 133.6617 15.07949156 40566
ICEYE-X66               
1 66301U 25248J   26201.33407998  .00002060  00000+0  14311-3 0  9991
2 66301  45.4023 318.9024 0005673 221.2592 138.7862 15.09198898 40510
ICEYE-X67               
1 66302U 25248K   26201.35882733  .00001772  00000+0  12540-3 0  9999
2 66302  45.4071 318.3531 0007078 221.9188 138.1153 15.09179672 40538
ICEYE-X60               
1 66753U 25276CR  26200.76990424  .00001909  00000+0  11913-3 0  9996
2 66753  97.4203 272.4701 0000985 344.1732  15.9467 15.10668296 35287
ICEYE-X61               
1 66754U 25276CS  26201.76661593  .00001668  00000+0  83843-4 0  9994
2 66754  97.4188 274.6307 0002624 191.5964 168.5210 15.18627771 35517
ICEYE-X62               
1 66755U 25276CT  26201.72490326  .00002567  00000+0  16101-3 0  9996
2 66755  97.4180 272.8831 0001206 204.9538 155.1633 15.10178558 35396
ICEYE-X63               
1 67372U 26004K   26201.89883584  .00000588  00000+0  69388-4 0  9999
2 67372  97.8017 200.0140 0005037  37.0338 323.1226 14.88355620 28310
ICEYE-X64               
1 67373U 26004L   26201.94892682  .00000774  00000+0  90310-4 0  9991
2 67373  97.8031 199.9802 0006887  38.1687 322.0016 14.87995742 28310
